ONEWEB-0369             
1 49295U 21090S   24101.74095797 -.00000057  00000+0 -17531-3 0  9990
2 49295  87.9101 103.6909 0001800  88.7529 271.3810 13.19725191121233
ONEWEB-0370             
1 49296U 21090T   24101.90806653 -.00000033  00000+0 -11255-3 0  9991
2 49296  87.9162  73.0825 0001986  82.7353 277.4006 13.20769385124627
ONEWEB-0371             
1 49297U 21090U   24101.97629977  .00000056  00000+0  10824-3 0  9995
2 49297  87.9100 103.6339 0001838  92.8331 267.3012 13.19726277121302
ONEWEB-0372             
1 49298U 21090V   24101.89688150  .00000030  00000+0  41963-4 0  9996
2 49298  87.9166  73.0930 0001790  84.9347 275.1990 13.20770776124599
ONEWEB-0373             
1 49299U 21090W   24101.92386241  .00000154  00000+0  34779-3 0  9990
2 49299  87.9164  73.1045 0002068  73.9515 286.1846 13.20770810125783
ONEWEB-0374             
1 49300U 21090X   24101.93716855  .00000121  00000+0  29147-3 0  9999
2 49300  87.8902  88.3495 0001880  82.5155 277.6188 13.14504878122827
ONEWEB-0375             
1 49301U 21090Y   24101.91122815  .00000012  00000+0 -20852-5 0  9991
2 49301  87.9164  73.0828 0002591  74.6601 285.4818 13.20770339125282
ONEWEB-0376             
1 49302U 21090Z   24101.97470163  .00000090  00000+0  19191-3 0  9997
2 49302  87.9094 103.6469 0001646  91.7845 268.3476 13.19725779121301
